[{"OBJECT_NAME":"STARLINK-4527","OBJECT_ID":"2022-097BA","EPOCH":"2026-01-28T21:57:31.172832","MEAN_MOTION":15.08866977,"ECCENTRICITY":0.00011513,"INCLINATION":53.2152,"RA_OF_ASC_NODE":282.3602,"ARG_OF_PERICENTER":86.8012,"MEAN_ANOMALY":273.3111,"EPHEMERIS_TYPE":0,"CLASSIFICATION_TYPE":"U","NORAD_CAT_ID":53436,"ELEMENT_SET_NO":999,"REV_AT_EPOCH":19278,"BSTAR":0.0013467566,"MEAN_MOTION_DOT":0.00021226,"MEAN_MOTION_DDOT":0},{"OBJECT_NAME":"STARLINK-4526","OBJECT_ID":"2022-097BC","EPOCH":"2026-01-28T23:27:35.820288","MEAN_MOTION":15.08845614,"ECCENTRICITY":0.00012364,"INCLINATION":53.2171,"RA_OF_ASC_NODE":282.0407,"ARG_OF_PERICENTER":89.9579,"MEAN_ANOMALY":270.1555,"EPHEMERIS_TYPE":0,"CLASSIFICATION_TYPE":"U","NORAD_CAT_ID":53438,"ELEMENT_SET_NO":999,"REV_AT_EPOCH":19280,"BSTAR":0.00012684278,"MEAN_MOTION_DOT":1.732e-5,"MEAN_MOTION_DDOT":0},{"OBJECT_NAME":"STARLINK-4519","OBJECT_ID":"2022-097BD","EPOCH":"2026-01-28T22:09:30.394080","MEAN_MOTION":15.08841888,"ECCENTRICITY":0.00011682,"INCLINATION":53.2155,"RA_OF_ASC_NODE":282.4073,"ARG_OF_PERICENTER":91.0505,"MEAN_ANOMALY":269.0621,"EPHEMERIS_TYPE":0,"CLASSIFICATION_TYPE":"U","NORAD_CAT_ID":53439,"ELEMENT_SET_NO":999,"REV_AT_EPOCH":19279,"BSTAR":-3.408183e-6,"MEAN_MOTION_DOT":-3.42e-6,"MEAN_MOTION_DDOT":0},{"OBJECT_NAME":"STARLINK-4415","OBJECT_ID":"2022-099A","EPOCH":"2026-01-28T21:07:37.145856","MEAN_MOTION":15.05618596,"ECCENTRICITY":2.944e-5,"INCLINATION":97.6038,"RA_OF_ASC_NODE":151.9763,"ARG_OF_PERICENTER":94.3568,"MEAN_ANOMALY":265.7692,"EPHEMERIS_TYPE":0,"CLASSIFICATION_TYPE":"U","NORAD_CAT_ID":53465,"ELEMENT_SET_NO":999,"REV_AT_EPOCH":19004,"BSTAR":0.00039905923,"MEAN_MOTION_DOT":5.697e-5,"MEAN_MOTION_DDOT":0},{"OBJECT_NAME":"STARLINK-4398","OBJECT_ID":"2022-099B","EPOCH":"2026-01-28T20:52:30.240480","MEAN_MOTION":15.01286287,"ECCENTRICITY":0.00024325,"INCLINATION":97.6033,"RA_OF_ASC_NODE":151.2321,"ARG_OF_PERICENTER":70.719,"MEAN_ANOMALY":289.4297,"EPHEMERIS_TYPE":0,"CLASSIFICATION_TYPE":"U","NORAD_CAT_ID":53466,"ELEMENT_SET_NO":999,"REV_AT_EPOCH":19000,"BSTAR":-0.00048659446,"MEAN_MOTION_DOT":-6.307e-5,"MEAN_MOTION_DDOT":0},{"OBJECT_NAME":"STARLINK-4394","OBJECT_ID":"2022-099C","EPOCH":"2026-01-28T20:59:38.875200","MEAN_MOTION":15.05652115,"ECCENTRICITY":8.504e-5,"INCLINATION":97.6026,"RA_OF_ASC_NODE":152.0268,"ARG_OF_PERICENTER":235.5947,"MEAN_ANOMALY":124.52,"EPHEMERIS_TYPE":0,"CLASSIFICATION_TYPE":"U","NORAD_CAT_ID":53467,"ELEMENT_SET_NO":999,"REV_AT_EPOCH":19005,"BSTAR":7.5292377e-5,"MEAN_MOTION_DOT":1.026e-5,"MEAN_MOTION_DDOT":0},{"OBJECT_NAME":"STARLINK-4400","OBJECT_ID":"2022-099D","EPOCH":"2026-01-28T20:47:10.879296","MEAN_MOTION":15.01266416,"ECCENTRICITY":0.00032801,"INCLINATION":97.6031,"RA_OF_ASC_NODE":151.227,"ARG_OF_PERICENTER":65.0083,"MEAN_ANOMALY":295.1482,"EPHEMERIS_TYPE":0,"CLASSIFICATION_TYPE":"U","NORAD_CAT_ID":53468,"ELEMENT_SET_NO":999,"REV_AT_EPOCH":19000,"BSTAR":8.838467e-5,"MEAN_MOTION_DOT":1.077e-5,"MEAN_MOTION_DDOT":0},{"OBJECT_NAME":"STARLINK-4399","OBJECT_ID":"2022-099E","EPOCH":"2026-01-28T22:19:23.053152","MEAN_MOTION":15.05650238,"ECCENTRICITY":3.947e-5,"INCLINATION":97.6031,"RA_OF_ASC_NODE":152.046,"ARG_OF_PERICENTER":92.7298,"MEAN_ANOMALY":267.3974,"EPHEMERIS_TYPE":0,"CLASSIFICATION_TYPE":"U","NORAD_CAT_ID":53469,"ELEMENT_SET_NO":999,"REV_AT_EPOCH":19006,"BSTAR":5.4335264e-5,"MEAN_MOTION_DOT":7.23e-6,"MEAN_MOTION_DDOT":0},{"OBJECT_NAME":"STARLINK-4393","OBJECT_ID":"2022-099F","EPOCH":"2026-01-28T22:20:08.735424","MEAN_MOTION":15.01254355,"ECCENTRICITY":0.00030452,"INCLINATION":97.6019,"RA_OF_ASC_NODE":151.2896,"ARG_OF_PERICENTER":72.752,"MEAN_ANOMALY":287.4038,"EPHEMERIS_TYPE":0,"CLASSIFICATION_TYPE":"U","NORAD_CAT_ID":53470,"ELEMENT_SET_NO":999,"REV_AT_EPOCH":19001,"BSTAR":4.2447553e-5,"MEAN_MOTION_DOT":4.87e-6,"MEAN_MOTION_DDOT":0},{"OBJECT_NAME":"STARLINK-4316","OBJECT_ID":"2022-099G","EPOCH":"2026-01-28T21:11:35.151936","MEAN_MOTION":15.05650396,"ECCENTRICITY":3.04e-5,"INCLINATION":97.6021,"RA_OF_ASC_NODE":151.9478,"ARG_OF_PERICENTER":141.2537,"MEAN_ANOMALY":218.8712,"EPHEMERIS_TYPE":0,"CLASSIFICATION_TYPE":"U","NORAD_CAT_ID":53471,"ELEMENT_SET_NO":999,"REV_AT_EPOCH":19005,"BSTAR":0.00021286017,"MEAN_MOTION_DOT":3.012e-5,"MEAN_MOTION_DDOT":0},{"OBJECT_NAME":"STARLINK-4447","OBJECT_ID":"2022-099H","EPOCH":"2026-01-28T22:14:48.064416","MEAN_MOTION":15.01262123,"ECCENTRICITY":0.00016105,"INCLINATION":97.6016,"RA_OF_ASC_NODE":151.2878,"ARG_OF_PERICENTER":95.5672,"MEAN_ANOMALY":264.5736,"EPHEMERIS_TYPE":0,"CLASSIFICATION_TYPE":"U","NORAD_CAT_ID":53472,"ELEMENT_SET_NO":999,"REV_AT_EPOCH":19001,"BSTAR":1.186447e-5,"MEAN_MOTION_DOT":9.4e-7,"MEAN_MOTION_DDOT":0},{"OBJECT_NAME":"STARLINK-4383","OBJECT_ID":"2022-099J","EPOCH":"2026-01-28T21:59:27.034368","MEAN_MOTION":15.05649046,"ECCENTRICITY":0.00012826,"INCLINATION":97.603,"RA_OF_ASC_NODE":152.0482,"ARG_OF_PERICENTER":90.1872,"MEAN_ANOMALY":269.9501,"EPHEMERIS_TYPE":0,"CLASSIFICATION_TYPE":"U","NORAD_CAT_ID":53473,"ELEMENT_SET_NO":999,"REV_AT_EPOCH":19006,"BSTAR":2.7251636e-5,"MEAN_MOTION_DOT":3.32e-6,"MEAN_MOTION_DDOT":0},{"OBJECT_NAME":"STARLINK-4445","OBJECT_ID":"2022-099K","EPOCH":"2026-01-28T21:56:31.127424","MEAN_MOTION":15.01231171,"ECCENTRICITY":8.072e-5,"INCLINATION":97.6018,"RA_OF_ASC_NODE":151.2683,"ARG_OF_PERICENTER":269.0466,"MEAN_ANOMALY":91.0665,"EPHEMERIS_TYPE":0,"CLASSIFICATION_TYPE":"U","NORAD_CAT_ID":53474,"ELEMENT_SET_NO":999,"REV_AT_EPOCH":19001,"BSTAR":0.0013979676,"MEAN_MOTION_DOT":0.00017929,"MEAN_MOTION_DDOT":0},{"OBJECT_NAME":"STARLINK-4389","OBJECT_ID":"2022-099L","EPOCH":"2026-01-28T22:04:08.785632","MEAN_MOTION":15.01256044,"ECCENTRICITY":2.933e-5,"INCLINATION":97.6046,"RA_OF_ASC_NODE":151.2784,"ARG_OF_PERICENTER":118.9092,"MEAN_ANOMALY":241.2162,"EPHEMERIS_TYPE":0,"CLASSIFICATION_TYPE":"U","NORAD_CAT_ID":53475,"ELEMENT_SET_NO":999,"REV_AT_EPOCH":19071,"BSTAR":-3.4190451e-5,"MEAN_MOTION_DOT":-4.97e-6,"MEAN_MOTION_DDOT":0},{"OBJECT_NAME":"STARLINK-4378","OBJECT_ID":"2022-099M","EPOCH":"2026-01-28T20:33:29.622240","MEAN_MOTION":15.01261359,"ECCENTRICITY":0.0001111,"INCLINATION":97.6017,"RA_OF_ASC_NODE":151.2138,"ARG_OF_PERICENTER":97.8509,"MEAN_ANOMALY":262.2841,"EPHEMERIS_TYPE":0,"CLASSIFICATION_TYPE":"U","NORAD_CAT_ID":53476,"ELEMENT_SET_NO":999,"REV_AT_EPOCH":19000,"BSTAR":4.251026e-6,"MEAN_MOTION_DOT":-4.0e-8,"MEAN_MOTION_DDOT":0},{"OBJECT_NAME":"STARLINK-4412","OBJECT_ID":"2022-099N","EPOCH":"2026-01-28T20:49:30.288288","MEAN_MOTION":15.01265231,"ECCENTRICITY":0.00035385,"INCLINATION":97.6032,"RA_OF_ASC_NODE":151.1918,"ARG_OF_PERICENTER":84.67,"MEAN_ANOMALY":275.4928,"EPHEMERIS_TYPE":0,"CLASSIFICATION_TYPE":"U","NORAD_CAT_ID":53477,"ELEMENT_SET_NO":999,"REV_AT_EPOCH":19070,"BSTAR":4.7129794e-5,"MEAN_MOTION_DOT":5.47e-6,"MEAN_MOTION_DDOT":0}]
