STARLINK-4527           
1 53436U 22097BA  26028.91494413  .00021226  00000+0  13468-2 0  9990
2 53436  53.2152 282.3602 0001151  86.8012 273.3111 15.08866977192789
STARLINK-4526           
1 53438U 22097BC  26028.97749792  .00001732  00000+0  12684-3 0  9991
2 53438  53.2171 282.0407 0001236  89.9579 270.1555 15.08845614192803
STARLINK-4519           
1 53439U 22097BD  26028.92326845 -.00000342  00000+0 -34082-5 0  9993
2 53439  53.2155 282.4073 0001168  91.0505 269.0621 15.08841888192794
STARLINK-4415           
1 53465U 22099A   26028.88029104  .00005697  00000+0  39906-3 0  9991
2 53465  97.6038 151.9763 0000294  94.3568 265.7692 15.05618596190047
STARLINK-4398           
1 53466U 22099B   26028.86979445 -.00006307  00000+0 -48659-3 0  9998
2 53466  97.6033 151.2321 0002432  70.7190 289.4297 15.01286287190005
STARLINK-4394           
1 53467U 22099C   26028.87475550  .00001026  00000+0  75292-4 0  9993
2 53467  97.6026 152.0268 0000850 235.5947 124.5200 15.05652115190059
STARLINK-4400           
1 53468U 22099D   26028.86609814  .00001077  00000+0  88385-4 0  9998
2 53468  97.6031 151.2270 0003280  65.0083 295.1482 15.01266416190000
STARLINK-4399           
1 53469U 22099E   26028.93012793  .00000723  00000+0  54335-4 0  9996
2 53469  97.6031 152.0460 0000394  92.7298 267.3974 15.05650238190065
STARLINK-4393           
1 53470U 22099F   26028.93065666  .00000487  00000+0  42448-4 0  9994
2 53470  97.6019 151.2896 0003045  72.7520 287.4038 15.01254355190014
STARLINK-4316           
1 53471U 22099G   26028.88304574  .00003012  00000+0  21286-3 0  9996
2 53471  97.6021 151.9478 0000304 141.2537 218.8712 15.05650396190056
STARLINK-4447           
1 53472U 22099H   26028.92694519  .00000094  00000+0  11864-4 0  9992
2 53472  97.6016 151.2878 0001610  95.5672 264.5736 15.01262123190013
STARLINK-4383           
1 53473U 22099J   26028.91628512  .00000332  00000+0  27252-4 0  9995
2 53473  97.6030 152.0482 0001282  90.1872 269.9501 15.05649046190069
STARLINK-4445           
1 53474U 22099K   26028.91424916  .00017929  00000+0  13980-2 0  9999
2 53474  97.6018 151.2683 0000807 269.0466  91.0665 15.01231171190010
STARLINK-4389           
1 53475U 22099L   26028.91954613 -.00000497  00000+0 -34190-4 0  9994
2 53475  97.6046 151.2784 0000293 118.9092 241.2162 15.01256044190714
STARLINK-4378           
1 53476U 22099M   26028.85659285 -.00000004  00000+0  42510-5 0  9994
2 53476  97.6017 151.2138 0001111  97.8509 262.2841 15.01261359190008
STARLINK-4412           
1 53477U 22099N   26028.86771167  .00000547  00000+0  47130-4 0  9993
2 53477  97.6032 151.1918 0003538  84.6700 275.4928 15.01265231190705
